H1 CPF 01  gfz 2021 10 03 12  7762 tandemx   
H2 1003001  6202 36605    2021 10 03 12 59 42 2021 10 08 00 00 42   120 1 1  0 0 0
H9
10 0 59492   6462.000000  0   -1209573.616   -444505.106   6755852.277
10 0 59492   6582.000000  0    -806752.702    380669.594   6819446.374
10 0 59492   6702.000000  0    -375536.159   1191904.087   6763212.853
10 0 59492   6822.000000  0      76181.090   1974615.191   6588134.899
10 0 59492   6942.000000  0     539896.080   2714856.367   6297271.260
10 0 59492   7062.000000  0    1006657.047   3399566.178   5895705.777
10 0 59492   7182.000000  0    1467234.924   4016801.052   5390464.014
10 0 59492   7302.000000  0    1912304.722   4555948.102   4790396.354
10 0 59492   7422.000000  0    2332634.348   5007914.345   4106028.467
10 0 59492   7542.000000  0    2719275.864   5365286.137   3349380.374
10 0 59492   7662.000000  0    3063756.007   5622459.160   2533759.374
10 0 59492   7782.000000  0    3358262.381   5775735.726   1673523.184
10 0 59492   7902.000000  0    3595817.563   5823379.887    783821.193
10 0 59492   8022.000000  0    3770438.186   5765634.694   -119678.854
10 0 59492   8142.000000  0    3877276.247   5604698.654  -1021075.448
10 0 59492   8262.000000  0    3912737.182   5344662.735  -1904521.151
10 0 59492   8382.000000  0    3874573.028   4991410.225  -2754508.863
10 0 59492   8502.000000  0    3761947.188   4552481.080  -3556149.932
10 0 59492   8622.000000  0    3575469.600   4036904.881  -4295437.175
10 0 59492   8742.000000  0    3317203.177   3455008.793  -4959487.480
10 0 59492   8862.000000  0    2990641.408   2818204.463  -5536761.923
10 0 59492   8982.000000  0    2600657.529   2138758.549  -6017257.746
10 0 59492   9102.000000  0    2153427.624   1429553.435  -6392671.252
10 0 59492   9222.000000  0    1656329.418    703842.461  -6656528.919
10 0 59492   9342.000000  0    1117820.354    -24994.530  -6804287.949
10 0 59492   9462.000000  0     547294.197   -743693.322  -6833407.605
10 0 59492   9582.000000  0     -45080.893  -1439341.594  -6743386.580
10 0 59492   9702.000000  0    -648538.473  -2099603.891  -6535769.906
10 0 59492   9822.000000  0   -1251904.436  -2712935.201  -6214126.911
10 0 59492   9942.000000  0   -1843799.117  -3268780.580  -5783996.214
10 0 59492  10062.000000  0   -2412846.891  -3757755.862  -5252800.119
10 0 59492  10182.000000  0   -2947892.320  -4171809.333  -4629729.258
10 0 59492  10302.000000  0   -3438219.203  -4504360.371  -3925594.560
10 0 59492  10422.000000  0   -3873766.308  -4750410.766  -3152649.009
10 0 59492  10542.000000  0   -4245336.580  -4906627.292  -2324381.766
10 0 59492  10662.000000  0   -4544794.801  -4971392.446  -1455286.244
10 0 59492  10782.000000  0   -4765248.330  -4944821.736   -560606.200
10 0 59492  10902.000000  0   -4901205.992  -4828746.532    343935.514
10 0 59492  11022.000000  0   -4948710.853  -4626662.290   1242420.523
10 0 59492  11142.000000  0   -4905442.411  -4343641.929   2119024.728
10 0 59492  11262.000000  0   -4770785.139  -3986216.773   2958306.232
10 0 59492  11382.000000  0   -4545862.431  -3562228.820   3745485.088
10 0 59492  11502.000000  0   -4233535.221  -3080658.370   4466709.730
10 0 59492  11622.000000  0   -3838364.313  -2551430.364   5109303.833
10 0 59492  11742.000000  0   -3366539.445  -1985206.409   5661987.512
10 0 59492  11862.000000  0   -2825777.747  -1393167.810   6115072.513
10 0 59492  11982.000000  0   -2225192.118   -786792.129   6460628.797
10 0 59492  12102.000000  0   -1575131.866   -177627.611   6692617.768
10 0 59492  12222.000000  0    -887000.163    422926.731   6806989.963
10 0 59492  12342.000000  0    -173053.568   1003832.751   6801750.995
10 0 59492  12462.000000  0     553815.973   1554615.546   6676994.446
10 0 59492  12582.000000  0    1280313.476   2065552.470   6434900.385
10 0 59492  12702.000000  0    1992983.412   2527844.743   6079698.783
10 0 59492  12822.000000  0    2678458.246   2933769.568   5617600.631
10 0 59492  12942.000000  0    3323710.898   3276811.949   5056696.208
10 0 59492  13062.000000  0    3916305.844   3551772.739   4406818.140
10 0 59492  13182.000000  0    4444641.166   3754849.738   3679374.229
10 0 59492  13302.000000  0    4898183.836   3883693.449   2887152.198
10 0 59492  13422.000000  0    5267685.909   3937431.910   2044092.246
10 0 59492  13542.000000  0    5545378.168   3916664.892   1165039.398
10 0 59492  13662.000000  0    5725136.863   3823428.380    265475.787
10 0 59492  13782.000000  0    5802618.286   3661128.824   -638760.645
10 0 59492  13902.000000  0    5775357.232   3434449.257  -1531763.793
10 0 59492  14022.000000  0    5642827.678   3149229.650  -2397847.368
10 0 59492  14142.000000  0    5406463.831   2812325.315  -3221826.398
10 0 59492  14262.000000  0    5069643.054   2431447.252  -3989286.728
10 0 59492  14382.000000  0    4637630.744   2014988.049  -4686838.680
10 0 59492  14502.000000  0    4117486.736   1571837.077  -5302346.861
10 0 59492  14622.000000  0    3517940.462   1111191.943  -5825133.109
10 0 59492  14742.000000  0    2849236.358    642369.645  -6246152.307
10 0 59492  14862.000000  0    2122952.438    174620.760  -6558137.430
10 0 59492  14982.000000  0    1351797.945   -283048.895  -6755713.155
10 0 59492  15102.000000  0     549392.640   -722047.564  -6835480.269
10 0 59492  15222.000000  0    -269971.366  -1134354.772  -6796067.010
10 0 59492  15342.000000  0   -1091577.627  -1512663.319  -6638149.003
10 0 59492  15462.000000  0   -1900543.189  -1850505.587  -6364439.977
10 0 59492  15582.000000  0   -2682082.405  -2142362.547  -5979649.805
10 0 59492  15702.000000  0   -3421771.316  -2383753.046  -5490411.952
10 0 59492  15822.000000  0   -4105812.192  -2571303.984  -4905181.617
10 0 59492  15942.000000  0   -4721293.561  -2702798.814  -4234100.974
10 0 59492  16062.000000  0   -5256438.595  -2777202.918  -3488833.791
10 0 59492  16182.000000  0   -5700838.388  -2794665.434  -2682371.215
10 0 59492  16302.000000  0   -6045664.130  -2756496.606  -1828810.123
10 0 59492  16422.000000  0   -6283852.179  -2665121.191   -943108.021
10 0 59492  16542.000000  0   -6410257.630  -2524008.231    -40818.320
10 0 59492  16662.000000  0   -6421771.292  -2337578.578    862188.381
10 0 59492  16782.000000  0   -6317397.310  -2111092.329   1750011.979
10 0 59492  16902.000000  0   -6098286.694  -1850518.863   2607012.934
10 0 59492  17022.000000  0   -5767727.068  -1562392.843   3418095.737
10 0 59492  17142.000000  0   -5331090.724  -1253660.080   4168982.594
10 0 59492  17262.000000  0   -4795738.131   -931516.661   4846469.587
10 0 59492  17382.000000  0   -4170884.539   -603246.706   5438657.954
10 0 59492  17502.000000  0   -3467433.521   -276062.308   5935161.509
10 0 59492  17622.000000  0   -2697777.891     43051.982   6327285.543
10 0 59492  17742.000000  0   -1875573.657    347485.235   6608173.196
10 0 59492  17862.000000  0   -1015492.674    631133.567   6772919.029
10 0 59492  17982.000000  0    -132958.705    888520.601   6818649.046
10 0 59492  18102.000000  0     756129.021   1114901.875   6744567.120
10 0 59492  18222.000000  0    1635681.193   1306352.131   6551968.067
10 0 59492  18342.000000  0    2489708.723   1459833.749   6244216.194
10 0 59492  18462.000000  0    3302613.150   1573244.926   5826690.708
10 0 59492  18582.000000  0    4059474.240   1645447.269   5306697.031
10 0 59492  18702.000000  0    4746326.790   1676272.333   4693344.461
10 0 59492  18822.000000  0    5350424.762   1666507.924   3997394.298
10 0 59492  18942.000000  0    5860488.716   1617862.997   3231074.123
10 0 59492  19062.000000  0    6266924.351   1532912.064   2407862.451
10 0 59492  19182.000000  0    6562012.666   1415019.677   1542251.257
10 0 59492  19302.000000  0    6740064.685   1268247.790    649485.175
10 0 59492  19422.000000  0    6797535.941   1097247.762   -254713.819
10 0 59492  19542.000000  0    6733099.281    907139.568  -1154432.574
10 0 59492  19662.000000  0    6547670.670    703380.792  -2033855.800
10 0 59492  19782.000000  0    6244391.143    491629.028  -2877550.763
10 0 59492  19902.000000  0    5828564.642    277602.411  -3670743.314
10 0 59492  20022.000000  0    5307553.734     66941.130  -4399578.991
10 0 59492  20142.000000  0    4690635.229   -134926.708  -5051362.963
10 0 59492  20262.000000  0    3988822.655   -322911.201  -5614774.004
10 0 59492  20382.000000  0    3214660.630   -492376.379  -6080052.487
10 0 59492  20502.000000  0    2381993.316   -639243.829  -6439159.687
10 0 59492  20622.000000  0    1505713.004   -760081.157  -6685904.238
10 0 59492  20742.000000  0     601495.417   -852175.267  -6816038.614
10 0 59492  20862.000000  0    -314477.480   -913588.229  -6827324.840
10 0 59492  20982.000000  0   -1225800.569   -943195.183  -6719567.847
10 0 59492  21102.000000  0   -2116132.435   -940704.412  -6494619.163
10 0 59492  21222.000000  0   -2969482.075   -906658.650  -6156347.528
10 0 59492  21342.000000  0   -3770489.252   -842418.276  -5710579.390
10 0 59492  21462.000000  0   -4504699.510   -750126.440  -5165010.386
10 0 59492  21582.000000  0   -5158827.425   -632656.051  -4529083.465
10 0 59492  21702.000000  0   -5721002.442   -493540.267  -3813837.099
10 0 59492  21822.000000  0   -6180994.531   -336887.008  -3031723.700
10 0 59492  21942.000000  0   -6530412.290   -167278.402  -2196399.027
10 0 59492  22062.000000  0   -6762869.444     10341.395  -1322487.345
10 0 59492  22182.000000  0   -6874115.650    190789.392   -425323.809
10 0 59492  22302.000000  0   -6862123.439    368773.436    479321.250
10 0 59492  22422.000000  0   -6727131.123    539025.766   1375525.800
10 0 59492  22542.000000  0   -6471642.108    696436.560   2247504.791
10 0 59492  22662.000000  0   -6100377.819    836184.289   3079897.766
10 0 59492  22782.000000  0   -5620185.011    953859.545   3858047.896
10 0 59492  22902.000000  0   -5039900.615   1045578.895   4568265.279
99
